{"type": "FeatureCollection", "features": [ {"type": "Feature", "properties": {"norad_id": 30306, "name": "FENGYUN 1C DEB", "group": "fengyun-1c-debris", "lat": -3.3503111474456486, "lon": 37.139061684813974, "alt_km": 727.6813925789775, "timestamp": "2025-12-21T16:47:55.013627+00:00", "meta": {"OBJECT_NAME": "FENGYUN 1C DEB", "OBJECT_ID": "1999-025ZT", "EPOCH": "2025-12-21T08:24:26.991360", "MEAN_MOTION": 14.28243189, "ECCENTRICITY": 0.0113033, "INCLINATION": 98.5861, "RA_OF_ASC_NODE": 36.2884, "ARG_OF_PERICENTER": 332.0713, "MEAN_ANOMALY": 27.443, "EPHEMERIS_TYPE": 0, "CLASSIFICATION_TYPE": "U", "NORAD_CAT_ID": 30306, "ELEMENT_SET_NO": 999, "REV_AT_EPOCH": 97804, "BSTAR": 0.00076128, "MEAN_MOTION_DOT": 1.988e-05, "MEAN_MOTION_DDOT": 0}, "tle": {"line1": "1 30306U 99025ZT  25355.35031240  .00001988  00000+0  76128-3 0  9997", "line2": "2 30306  98.5861  36.2884 0113033 332.0713  27.4430 14.28243189978042"}}, "geometry": {"type": "Point", "coordinates": [37.139061684813974, -3.3503111474456486]}}, {"type": "Feature", "properties": {"norad_id": 30309, "name": "FENGYUN 1C DEB", "group": "fengyun-1c-debris", "lat": -42.82272777665768, "lon": -135.8201260430459, "alt_km": 884.0273538930978, "timestamp": "2025-12-21T16:47:55.013637+00:00", "meta": {"OBJECT_NAME": "FENGYUN 1C DEB", "OBJECT_ID": "1999-025ZW", "EPOCH": "2025-12-21T10:33:55.546272", "MEAN_MOTION": 13.93525819, "ECCENTRICITY": 0.0093723, "INCLINATION": 99.2248, "RA_OF_ASC_NODE": 52.5829, "ARG_OF_PERICENTER": 168.2945, "MEAN_ANOMALY": 192.0424, "EPHEMERIS_TYPE": 0, "CLASSIFICATION_TYPE": "U", "NORAD_CAT_ID": 30309, "ELEMENT_SET_NO": 999, "REV_AT_EPOCH": 96154, "BSTAR": 0.00033971, "MEAN_MOTION_DOT": 4.17e-06, "MEAN_MOTION_DDOT": 0}, "tle": {"line1": "1 30309U 99025ZW  25355.44022623  .00000417  00000+0  33971-3 0  9990", "line2": "2 30309  99.2248  52.5829 0093723 168.2945 192.0424 13.93525819961544"}}, "geometry": {"type": "Point", "coordinates": [-135.8201260430459, -42.82272777665768]}}, {"type": "Feature", "properties": {"norad_id": 30310, "name": "FENGYUN 1C DEB", "group": "fengyun-1c-debris", "lat": -75.7180244407015, "lon": 158.19738755873297, "alt_km": 818.7840259840932, "timestamp": "2025-12-21T16:47:55.013648+00:00", "meta": {"OBJECT_NAME": "FENGYUN 1C DEB", "OBJECT_ID": "1999-025ZX", "EPOCH": "2025-12-21T12:08:46.023072", "MEAN_MOTION": 14.0840932, "ECCENTRICITY": 0.0240533, "INCLINATION": 98.664, "RA_OF_ASC_NODE": 14.8071, "ARG_OF_PERICENTER": 332.6225, "MEAN_ANOMALY": 26.2436, "EPHEMERIS_TYPE": 0, "CLASSIFICATION_TYPE": "U", "NORAD_CAT_ID": 30310, "ELEMENT_SET_NO": 999, "REV_AT_EPOCH": 96855, "BSTAR": 0.00050156, "MEAN_MOTION_DOT": 1.076e-05, "MEAN_MOTION_DDOT": 0}, "tle": {"line1": "1 30310U 99025ZX  25355.50608823  .00001076  00000+0  50156-3 0  9997", "line2": "2 30310  98.6640  14.8071 0240533 332.6225  26.2436 14.08409320968550"}}, "geometry": {"type": "Point", "coordinates": [158.19738755873297, -75.7180244407015]}}, {"type": "Feature", "properties": {"norad_id": 30311, "name": "FENGYUN 1C DEB", "group": "fengyun-1c-debris", "lat": -19.24211459689035, "lon": -92.16396247695997, "alt_km": 866.639053108438, "timestamp": "2025-12-21T16:47:55.013658+00:00", "meta": {"OBJECT_NAME": "FENGYUN 1C DEB", "OBJECT_ID": "1999-025ZY", "EPOCH": "2025-12-21T12:21:12.755808", "MEAN_MOTION": 13.77896403, "ECCENTRICITY": 0.0165576, "INCLINATION": 99.1393, "RA_OF_ASC_NODE": 90.8789, "ARG_OF_PERICENTER": 173.7957, "MEAN_ANOMALY": 186.5298, "EPHEMERIS_TYPE": 0, "CLASSIFICATION_TYPE": "U", "NORAD_CAT_ID": 30311, "ELEMENT_SET_NO": 999, "REV_AT_EPOCH": 95081, "BSTAR": 0.00032738, "MEAN_MOTION_DOT": 3.21e-06, "MEAN_MOTION_DDOT": 0}, "tle": {"line1": "1 30311U 99025ZY  25355.51473097  .00000321  00000+0  32738-3 0  9990", "line2": "2 30311  99.1393  90.8789 0165576 173.7957 186.5298 13.77896403950814"}}, "geometry": {"type": "Point", "coordinates": [-92.16396247695997, -19.24211459689035]}}, {"type": "Feature", "properties": {"norad_id": 30312, "name": "FENGYUN 1C DEB", "group": "fengyun-1c-debris", "lat": -35.00202389636655, "lon": 81.64959538623854, "alt_km": 751.6679523987996, "timestamp": "2025-12-21T16:47:55.013668+00:00", "meta": {"OBJECT_NAME": "FENGYUN 1C DEB", "OBJECT_ID": "1999-025ZZ", "EPOCH": "2025-12-21T05:38:43.268064", "MEAN_MOTION": 14.4595671, "ECCENTRICITY": 0.0012207, "INCLINATION": 98.8655, "RA_OF_ASC_NODE": 74.8893, "ARG_OF_PERICENTER": 186.7185, "MEAN_ANOMALY": 240.1184, "EPHEMERIS_TYPE": 0, "CLASSIFICATION_TYPE": "U", "NORAD_CAT_ID": 30312, "ELEMENT_SET_NO": 999, "REV_AT_EPOCH": 98043, "BSTAR": 0.0017645, "MEAN_MOTION_DOT": 6.243e-05, "MEAN_MOTION_DDOT": 0}, "tle": {"line1": "1 30312U 99025ZZ  25355.23522301  .00006243  00000+0  17645-2 0  9991", "line2": "2 30312  98.8655  74.8893 0012207 186.7185 240.1184 14.45956710980435"}}, "geometry": {"type": "Point", "coordinates": [81.64959538623854, -35.00202389636655]}}, {"type": "Feature", "properties": {"norad_id": 30313, "name": "FENGYUN 1C DEB", "group": "fengyun-1c-debris", "lat": 66.70994245493388, "lon": -76.7388364828098, "alt_km": 838.9583818317242, "timestamp": "2025-12-21T16:47:55.013678+00:00", "meta": {"OBJECT_NAME": "FENGYUN 1C DEB", "OBJECT_ID": "1999-025AAA", "EPOCH": "2025-12-20T05:02:04.134912", "MEAN_MOTION": 14.25504928, "ECCENTRICITY": 0.00566666, "INCLINATION": 98.8755, "RA_OF_ASC_NODE": 80.4689, "ARG_OF_PERICENTER": 313.7785, "MEAN_ANOMALY": 74.5951, "EPHEMERIS_TYPE": 0, "CLASSIFICATION_TYPE": "U", "NORAD_CAT_ID": 30313, "ELEMENT_SET_NO": 999, "REV_AT_EPOCH": 97196, "BSTAR": 0.0011981527, "MEAN_MOTION_DOT": 2.835e-05, "MEAN_MOTION_DDOT": 0}, "tle": {"line1": "1 30313U 99025AAA 25354.20977008  .00002835  00000+0  11982-2 0  9997", "line2": "2 30313  98.8755  80.4689 0056666 313.7785  74.5951 14.25504928971965"}}, "geometry": {"type": "Point", "coordinates": [-76.7388364828098, 66.70994245493388]}}, {"type": "Feature", "properties": {"norad_id": 30314, "name": "FENGYUN 1C DEB", "group": "fengyun-1c-debris", "lat": 71.45362671897499, "lon": 159.77378020155868, "alt_km": 901.0400277513863, "timestamp": "2025-12-21T16:47:55.013688+00:00", "meta": {"OBJECT_NAME": "FENGYUN 1C DEB", "OBJECT_ID": "1999-025AAB", "EPOCH": "2025-12-19T07:54:02.351232", "MEAN_MOTION": 14.0121396, "ECCENTRICITY": 0.0143407, "INCLINATION": 98.3834, "RA_OF_ASC_NODE": 183.6699, "ARG_OF_PERICENTER": 339.1457, "MEAN_ANOMALY": 20.3896, "EPHEMERIS_TYPE": 0, "CLASSIFICATION_TYPE": "U", "NORAD_CAT_ID": 30314, "ELEMENT_SET_NO": 999, "REV_AT_EPOCH": 96201, "BSTAR": 0.00090289, "MEAN_MOTION_DOT": 1.445e-05, "MEAN_MOTION_DDOT": 0}, "tle": {"line1": "1 30314U 99025AAB 25353.32919388  .00001445  00000+0  90289-3 0  9991", "line2": "2 30314  98.3834 183.6699 0143407 339.1457  20.3896 14.01213960962014"}}, "geometry": {"type": "Point", "coordinates": [159.77378020155868, 71.45362671897499]}}, {"type": "Feature", "properties": {"norad_id": 30315, "name": "FENGYUN 1C DEB", "group": "fengyun-1c-debris", "lat": 80.98313537964643, "lon": -102.53322541862427, "alt_km": 832.85952591145, "timestamp": "2025-12-21T16:47:55.013699+00:00", "meta": {"OBJECT_NAME": "FENGYUN 1C DEB", "OBJECT_ID": "1999-025AAC", "EPOCH": "2025-12-21T12:03:20.626848", "MEAN_MOTION": 14.19076461, "ECCENTRICITY": 0.0034755, "INCLINATION": 98.6015, "RA_OF_ASC_NODE": 4.7544, "ARG_OF_PERICENTER": 334.9066, "MEAN_ANOMALY": 188.4283, "EPHEMERIS_TYPE": 0, "CLASSIFICATION_TYPE": "U", "NORAD_CAT_ID": 30315, "ELEMENT_SET_NO": 999, "REV_AT_EPOCH": 97831, "BSTAR": 0.00027538, "MEAN_MOTION_DOT": 5.36e-06, "MEAN_MOTION_DDOT": 0}, "tle": {"line1": "1 30315U 99025AAC 25355.50232207  .00000536  00000+0  27538-3 0  9999", "line2": "2 30315  98.6015   4.7544 0034755 334.9066 188.4283 14.19076461978313"}}, "geometry": {"type": "Point", "coordinates": [-102.53322541862427, 80.98313537964643]}}, {"type": "Feature", "properties": {"norad_id": 30316, "name": "FENGYUN 1C DEB", "group": "fengyun-1c-debris", "lat": -76.30507859427654, "lon": -120.21165339063052, "alt_km": 722.3195456300455, "timestamp": "2025-12-21T16:47:55.013709+00:00", "meta": {"OBJECT_NAME": "FENGYUN 1C DEB", "OBJECT_ID": "1999-025AAD", "EPOCH": "2025-12-21T05:42:55.715040", "MEAN_MOTION": 14.56199742, "ECCENTRICITY": 0.0035274, "INCLINATION": 98.6482, "RA_OF_ASC_NODE": 97.9609, "ARG_OF_PERICENTER": 13.4129, "MEAN_ANOMALY": 346.7997, "EPHEMERIS_TYPE": 0, "CLASSIFICATION_TYPE": "U", "NORAD_CAT_ID": 30316, "ELEMENT_SET_NO": 999, "REV_AT_EPOCH": 98460, "BSTAR": 0.0014934, "MEAN_MOTION_DOT": 6.609e-05, "MEAN_MOTION_DDOT": 0}, "tle": {"line1": "1 30316U 99025AAD 25355.23814485  .00006609  00000+0  14934-2 0  9996", "line2": "2 30316  98.6482  97.9609 0035274  13.4129 346.7997 14.56199742984603"}}, "geometry": {"type": "Point", "coordinates": [-120.21165339063052, -76.30507859427654]}}, {"type": "Feature", "properties": {"norad_id": 30317, "name": "FENGYUN 1C DEB", "group": "fengyun-1c-debris", "lat": 53.06677684405381, "lon": -15.955145459539473, "alt_km": 881.5698567770005, "timestamp": "2025-12-21T16:47:55.013719+00:00", "meta": {"OBJECT_NAME": "FENGYUN 1C DEB", "OBJECT_ID": "1999-025AAE", "EPOCH": "2025-12-21T11:25:18.416640", "MEAN_MOTION": 14.06952684, "ECCENTRICITY": 0.0024132, "INCLINATION": 98.7865, "RA_OF_ASC_NODE": 355.7003, "ARG_OF_PERICENTER": 251.1179, "MEAN_ANOMALY": 108.7373, "EPHEMERIS_TYPE": 0, "CLASSIFICATION_TYPE": "U", "NORAD_CAT_ID": 30317, "ELEMENT_SET_NO": 999, "REV_AT_EPOCH": 97136, "BSTAR": 3.7363e-05, "MEAN_MOTION_DOT": 1.9e-07, "MEAN_MOTION_DDOT": 0}, "tle": {"line1": "1 30317U 99025AAE 25355.47590760  .00000019  00000+0  37363-4 0  9992", "line2": "2 30317  98.7865 355.7003 0024132 251.1179 108.7373 14.06952684971360"}}, "geometry": {"type": "Point", "coordinates": [-15.955145459539473, 53.06677684405381]}}]}